[{"CCSDS_OMM_VERS":"2.0","COMMENT":"GENERATED VIA SPACE-TRACK.ORG API","CREATION_DATE":"2015-07-06T14:40:09","ORIGINATOR":"18 SPCS","OBJECT_NAME":"GALILEO-FM3","OBJECT_ID":"2012-055A","CENTER_NAME":"EARTH","REF_FRAME":"TEME","TIME_SYSTEM":"UTC","MEAN_ELEMENT_THEORY":"SGP4","EPOCH":"2015-07-06T03:26:31.388639","MEAN_MOTION":"1.70473620","ECCENTRICITY":"0.00051670","INCLINATION":"54.9888","RA_OF_ASC_NODE":"211.7892","ARG_OF_PERICENTER":"234.6886","MEAN_ANOMALY":"125.3165","EPHEMERIS_TYPE":"0","CLASSIFICATION_TYPE":"U","NORAD_CAT_ID":"38857","ELEMENT_SET_NO":"999","REV_AT_EPOCH":"1699","BSTAR":"0.00000000000000","MEAN_MOTION_DOT":"0.00000065","MEAN_MOTION_DDOT":"0.0000000000000","SEMIMAJOR_AXIS":"29600.363","PERIOD":"844.705","APOAPSIS":"23237.523","PERIAPSIS":"23206.934","OBJECT_TYPE":"PAYLOAD","RCS_SIZE":"LARGE","COUNTRY_CODE":"ESA","LAUNCH_DATE":"2012-10-12","SITE":"FRGUI","DECAY_DATE":null,"FILE":"1894998","GP_ID":"99700529","TLE_LINE0":"0 GALILEO-FM3","TLE_LINE1":"1 38857U 12055A   15187.14341885  .00000065  00000-0  00000+0 0  9990","TLE_LINE2":"2 38857 054.9888 211.7892 0005167 234.6886 125.3165 01.70473620 16999"},{"CCSDS_OMM_VERS":"2.0","COMMENT":"GENERATED VIA SPACE-TRACK.ORG API","CREATION_DATE":"2015-07-09T14:32:14","ORIGINATOR":"18 SPCS","OBJECT_NAME":"GALILEO-FM3","OBJECT_ID":"2012-055A","CENTER_NAME":"EARTH","REF_FRAME":"TEME","TIME_SYSTEM":"UTC","MEAN_ELEMENT_THEORY":"SGP4","EPOCH":"2015-07-09T01:49:55.384608","MEAN_MOTION":"1.70473620","ECCENTRICITY":"0.00051790","INCLINATION":"54.9885","RA_OF_ASC_NODE":"211.7075","ARG_OF_PERICENTER":"235.1058","MEAN_ANOMALY":"124.8968","EPHEMERIS_TYPE":"0","CLASSIFICATION_TYPE":"U","NORAD_CAT_ID":"38857","ELEMENT_SET_NO":"999","REV_AT_EPOCH":"1704","BSTAR":"0.00000000000000","MEAN_MOTION_DOT":"0.00000067","MEAN_MOTION_DDOT":"0.0000000000000","SEMIMAJOR_AXIS":"29600.363","PERIOD":"844.705","APOAPSIS":"23237.558","PERIAPSIS":"23206.898","OBJECT_TYPE":"PAYLOAD","RCS_SIZE":"LARGE","COUNTRY_CODE":"ESA","LAUNCH_DATE":"2012-10-12","SITE":"FRGUI","DECAY_DATE":null,"FILE":"1896456","GP_ID":"99726590","TLE_LINE0":"0 GALILEO-FM3","TLE_LINE1":"1 38857U 12055A   15190.07633547  .00000067  00000-0  00000+0 0  9997","TLE_LINE2":"2 38857 054.9885 211.7075 0005179 235.1058 124.8968 01.70473620 17041"},{"CCSDS_OMM_VERS":"2.0","COMMENT":"GENERATED VIA SPACE-TRACK.ORG API","CREATION_DATE":"2015-07-12T22:32:15","ORIGINATOR":"18 SPCS","OBJECT_NAME":"GALILEO-FM3","OBJECT_ID":"2012-055A","CENTER_NAME":"EARTH","REF_FRAME":"TEME","TIME_SYSTEM":"UTC","MEAN_ELEMENT_THEORY":"SGP4","EPOCH":"2015-07-12T00:13:20.422560","MEAN_MOTION":"1.70473668","ECCENTRICITY":"0.00051840","INCLINATION":"54.9882","RA_OF_ASC_NODE":"211.6259","ARG_OF_PERICENTER":"235.4192","MEAN_ANOMALY":"124.5885","EPHEMERIS_TYPE":"0","CLASSIFICATION_TYPE":"U","NORAD_CAT_ID":"38857","ELEMENT_SET_NO":"999","REV_AT_EPOCH":"1709","BSTAR":"0.00000000000000","MEAN_MOTION_DOT":"0.00000068","MEAN_MOTION_DDOT":"0.0000000000000","SEMIMAJOR_AXIS":"29600.358","PERIOD":"844.705","APOAPSIS":"23237.568","PERIAPSIS":"23206.878","OBJECT_TYPE":"PAYLOAD","RCS_SIZE":"LARGE","COUNTRY_CODE":"ESA","LAUNCH_DATE":"2012-10-12","SITE":"FRGUI","DECAY_DATE":null,"FILE":"1897986","GP_ID":"99755884","TLE_LINE0":"0 GALILEO-FM3","TLE_LINE1":"1 38857U 12055A   15193.00926415  .00000068  00000-0  00000+0 0  9993","TLE_LINE2":"2 38857 054.9882 211.6259 0005184 235.4192 124.5885 01.70473668 17091"},{"CCSDS_OMM_VERS":"2.0","COMMENT":"GENERATED VIA SPACE-TRACK.ORG API","CREATION_DATE":"2015-07-14T22:29:58","ORIGINATOR":"18 SPCS","OBJECT_NAME":"GALILEO-FM3","OBJECT_ID":"2012-055A","CENTER_NAME":"EARTH","REF_FRAME":"TEME","TIME_SYSTEM":"UTC","MEAN_ELEMENT_THEORY":"SGP4","EPOCH":"2015-07-14T08:32:02.917248","MEAN_MOTION":"1.70473715","ECCENTRICITY":"0.00051880","INCLINATION":"54.9879","RA_OF_ASC_NODE":"211.5606","ARG_OF_PERICENTER":"235.7047","MEAN_ANOMALY":"124.2961","EPHEMERIS_TYPE":"0","CLASSIFICATION_TYPE":"U","NORAD_CAT_ID":"38857","ELEMENT_SET_NO":"999","REV_AT_EPOCH":"1713","BSTAR":"0.00000000000000","MEAN_MOTION_DOT":"0.00000056","MEAN_MOTION_DDOT":"0.0000000000000","SEMIMAJOR_AXIS":"29600.352","PERIOD":"844.705","APOAPSIS":"23237.574","PERIAPSIS":"23206.861","OBJECT_TYPE":"PAYLOAD","RCS_SIZE":"LARGE","COUNTRY_CODE":"ESA","LAUNCH_DATE":"2012-10-12","SITE":"FRGUI","DECAY_DATE":null,"FILE":"1898958","GP_ID":"99774714","TLE_LINE0":"0 GALILEO-FM3","TLE_LINE1":"1 38857U 12055A   15195.35558932  .00000056  00000-0  00000+0 0  9995","TLE_LINE2":"2 38857 054.9879 211.5606 0005188 235.7047 124.2961 01.70473715 17138"},{"CCSDS_OMM_VERS":"2.0","COMMENT":"GENERATED VIA SPACE-TRACK.ORG API","CREATION_DATE":"2015-07-17T06:27:28","ORIGINATOR":"18 SPCS","OBJECT_NAME":"GALILEO-FM3","OBJECT_ID":"2012-055A","CENTER_NAME":"EARTH","REF_FRAME":"TEME","TIME_SYSTEM":"UTC","MEAN_ELEMENT_THEORY":"SGP4","EPOCH":"2015-07-16T16:50:44.266272","MEAN_MOTION":"1.70473779","ECCENTRICITY":"0.00051880","INCLINATION":"54.9878","RA_OF_ASC_NODE":"211.4952","ARG_OF_PERICENTER":"236.1091","MEAN_ANOMALY":"123.8770","EPHEMERIS_TYPE":"0","CLASSIFICATION_TYPE":"U","NORAD_CAT_ID":"38857","ELEMENT_SET_NO":"999","REV_AT_EPOCH":"1717","BSTAR":"0.00000000000000","MEAN_MOTION_DOT":"0.00000045","MEAN_MOTION_DDOT":"0.0000000000000","SEMIMAJOR_AXIS":"29600.345","PERIOD":"844.704","APOAPSIS":"23237.566","PERIAPSIS":"23206.853","OBJECT_TYPE":"PAYLOAD","RCS_SIZE":"LARGE","COUNTRY_CODE":"ESA","LAUNCH_DATE":"2012-10-12","SITE":"FRGUI","DECAY_DATE":null,"FILE":"1899989","GP_ID":"99794570","TLE_LINE0":"0 GALILEO-FM3","TLE_LINE1":"1 38857U 12055A   15197.70190123  .00000045  00000-0  00000+0 0  9998","TLE_LINE2":"2 38857 054.9878 211.4952 0005188 236.1091 123.8770 01.70473779 17171"},{"CCSDS_OMM_VERS":"2.0","COMMENT":"GENERATED VIA SPACE-TRACK.ORG API","CREATION_DATE":"2015-07-20T06:33:34","ORIGINATOR":"18 SPCS","OBJECT_NAME":"GALILEO-FM3","OBJECT_ID":"2012-055A","CENTER_NAME":"EARTH","REF_FRAME":"TEME","TIME_SYSTEM":"UTC","MEAN_ELEMENT_THEORY":"SGP4","EPOCH":"2015-07-19T15:14:06.620640","MEAN_MOTION":"1.70473841","ECCENTRICITY":"0.00051570","INCLINATION":"54.9875","RA_OF_ASC_NODE":"211.4137","ARG_OF_PERICENTER":"236.6387","MEAN_ANOMALY":"123.3340","EPHEMERIS_TYPE":"0","CLASSIFICATION_TYPE":"U","NORAD_CAT_ID":"38857","ELEMENT_SET_NO":"999","REV_AT_EPOCH":"1722","BSTAR":"0.00000000000000","MEAN_MOTION_DOT":"0.00000049","MEAN_MOTION_DDOT":"0.0000000000000","SEMIMAJOR_AXIS":"29600.338","PERIOD":"844.704","APOAPSIS":"23237.468","PERIAPSIS":"23206.938","OBJECT_TYPE":"PAYLOAD","RCS_SIZE":"LARGE","COUNTRY_CODE":"ESA","LAUNCH_DATE":"2012-10-12","SITE":"FRGUI","DECAY_DATE":null,"FILE":"1901337","GP_ID":"99820781","TLE_LINE0":"0 GALILEO-FM3","TLE_LINE1":"1 38857U 12055A   15200.63479885  .00000049  00000-0  00000+0 0  9994","TLE_LINE2":"2 38857 054.9875 211.4137 0005157 236.6387 123.3340 01.70473841 17226"},{"CCSDS_OMM_VERS":"2.0","COMMENT":"GENERATED VIA SPACE-TRACK.ORG API","CREATION_DATE":"2015-07-23T14:05:50","ORIGINATOR":"18 SPCS","OBJECT_NAME":"GALILEO-FM3","OBJECT_ID":"2012-055A","CENTER_NAME":"EARTH","REF_FRAME":"TEME","TIME_SYSTEM":"UTC","MEAN_ELEMENT_THEORY":"SGP4","EPOCH":"2015-07-23T03:42:12.066911","MEAN_MOTION":"1.70473853","ECCENTRICITY":"0.00051490","INCLINATION":"54.9871","RA_OF_ASC_NODE":"211.3159","ARG_OF_PERICENTER":"236.9851","MEAN_ANOMALY":"122.9904","EPHEMERIS_TYPE":"0","CLASSIFICATION_TYPE":"U","NORAD_CAT_ID":"38857","ELEMENT_SET_NO":"999","REV_AT_EPOCH":"1728","BSTAR":"0.00000000000000","MEAN_MOTION_DOT":"0.00000070","MEAN_MOTION_DDOT":"0.0000000000000","SEMIMAJOR_AXIS":"29600.336","PERIOD":"844.704","APOAPSIS":"23237.442","PERIAPSIS":"23206.960","OBJECT_TYPE":"PAYLOAD","RCS_SIZE":"LARGE","COUNTRY_CODE":"ESA","LAUNCH_DATE":"2012-10-12","SITE":"FRGUI","DECAY_DATE":null,"FILE":"1902716","GP_ID":"99847022","TLE_LINE0":"0 GALILEO-FM3","TLE_LINE1":"1 38857U 12055A   15204.15430633  .00000070  00000-0  00000+0 0  9997","TLE_LINE2":"2 38857 054.9871 211.3159 0005149 236.9851 122.9904 01.70473853 17285"},{"CCSDS_OMM_VERS":"2.0","COMMENT":"GENERATED VIA SPACE-TRACK.ORG API","CREATION_DATE":"2015-07-26T14:39:57","ORIGINATOR":"18 SPCS","OBJECT_NAME":"GALILEO-FM3","OBJECT_ID":"2012-055A","CENTER_NAME":"EARTH","REF_FRAME":"TEME","TIME_SYSTEM":"UTC","MEAN_ELEMENT_THEORY":"SGP4","EPOCH":"2015-07-26T02:05:37.424544","MEAN_MOTION":"1.70473790","ECCENTRICITY":"0.00051360","INCLINATION":"54.9866","RA_OF_ASC_NODE":"211.2344","ARG_OF_PERICENTER":"237.2996","MEAN_ANOMALY":"122.6838","EPHEMERIS_TYPE":"0","CLASSIFICATION_TYPE":"U","NORAD_CAT_ID":"38857","ELEMENT_SET_NO":"999","REV_AT_EPOCH":"1733","BSTAR":"0.00000000000000","MEAN_MOTION_DOT":"0.00000086","MEAN_MOTION_DDOT":"0.0000000000000","SEMIMAJOR_AXIS":"29600.344","PERIOD":"844.704","APOAPSIS":"23237.411","PERIAPSIS":"23207.006","OBJECT_TYPE":"PAYLOAD","RCS_SIZE":"LARGE","COUNTRY_CODE":"ESA","LAUNCH_DATE":"2012-10-12","SITE":"FRGUI","DECAY_DATE":null,"FILE":"1904149","GP_ID":"99874302","TLE_LINE0":"0 GALILEO-FM3","TLE_LINE1":"1 38857U 12055A   15207.08723871  .00000086  00000-0  00000+0 0  9998","TLE_LINE2":"2 38857 054.9866 211.2344 0005136 237.2996 122.6838 01.70473790 17333"}]